{
  "type": "FeatureCollection",
  "features": [
    {
      "type": "Feature",
      "properties": {
        "norad_id": 42917,
        "name": "QZS-3 (QZSS/PRN 199)",
        "group": "gnss",
        "lat": 0.0010636361749005372,
        "lon": -30.36802832287335,
        "alt_km": 35782.860209027946,
        "timestamp": "2025-12-20T07:33:51.056312+00:00",
        "meta_object_name": "QZS-3 (QZSS/PRN 199)",
        "meta_object_id": "2017-048A",
        "meta_epoch": "2025-12-19T20:42:54.101952",
        "meta_mean_motion": 1.00266125,
        "meta_eccentricity": 0.00018236,
        "meta_inclination": 0.0252,
        "meta_ra_of_asc_node": 173.7945,
        "meta_arg_of_pericenter": 105.0911,
        "meta_mean_anomaly": 247.5664,
        "meta_ephemeris_type": 0,
        "meta_classification_type": "U",
        "meta_norad_cat_id": 42917,
        "meta_element_set_no": 999,
        "meta_rev_at_epoch": 3046,
        "meta_bstar": 0,
        "meta_mean_motion_dot": 0,
        "meta_mean_motion_ddot": 0,
        "tle_line1": "1 42917U 17048A   25353.86312618  .00000000  00000+0  00000+0 0  9994",
        "tle_line2": "2 42917   0.0252 173.7945 0001823 105.0911 247.5664  1.00266125 30461"
      },
      "geometry": {
        "type": "Point",
        "coordinates": [
          -30.36802832287335,
          0.0010636361749005372
        ]
      }
    },
    {
      "type": "Feature",
      "properties": {
        "norad_id": 42939,
        "name": "COSMOS 2522 (752)",
        "group": "gnss",
        "lat": -13.85329134036683,
        "lon": -168.917098936696,
        "alt_km": 19140.437695783454,
        "timestamp": "2025-12-20T07:33:51.056323+00:00",
        "meta_object_name": "COSMOS 2522 (752)",
        "meta_object_id": "2017-055A",
        "meta_epoch": "2025-12-18T22:15:40.453056",
        "meta_mean_motion": 2.13102086,
        "meta_eccentricity": 0.00063844,
        "meta_inclination": 64.0762,
        "meta_ra_of_asc_node": 198.0182,
        "meta_arg_of_pericenter": 224.0179,
        "meta_mean_anomaly": 136.0111,
        "meta_ephemeris_type": 0,
        "meta_classification_type": "U",
        "meta_norad_cat_id": 42939,
        "meta_element_set_no": 999,
        "meta_rev_at_epoch": 6413,
        "meta_bstar": 0,
        "meta_mean_motion_dot": 1.07e-06,
        "meta_mean_motion_ddot": 0,
        "tle_line1": "1 42939U 17055A   25352.92755154  .00000107  00000+0  00000+0 0  9996",
        "tle_line2": "2 42939  64.0762 198.0182 0006384 224.0179 136.0111  2.13102086 64139"
      },
      "geometry": {
        "type": "Point",
        "coordinates": [
          -168.917098936696,
          -13.85329134036683
        ]
      }
    },
    {
      "type": "Feature",
      "properties": {
        "norad_id": 42965,
        "name": "QZS-4 (QZSS/PRN 195)",
        "group": "gnss",
        "lat": 0.8096934004103749,
        "lon": -13.285442621480657,
        "alt_km": 35522.162627073325,
        "timestamp": "2025-12-20T07:33:51.056335+00:00",
        "meta_object_name": "QZS-4 (QZSS/PRN 195)",
        "meta_object_id": "2017-062A",
        "meta_epoch": "2025-12-19T20:42:54.101952",
        "meta_mean_motion": 1.00251063,
        "meta_eccentricity": 0.07514887,
        "meta_inclination": 40.2223,
        "meta_ra_of_asc_node": 345.7806,
        "meta_arg_of_pericenter": 271.6926,
        "meta_mean_anomaly": 277.7655,
        "meta_ephemeris_type": 0,
        "meta_classification_type": "U",
        "meta_norad_cat_id": 42965,
        "meta_element_set_no": 999,
        "meta_rev_at_epoch": 3000,
        "meta_bstar": 0,
        "meta_mean_motion_dot": -3.29e-06,
        "meta_mean_motion_ddot": 0,
        "tle_line1": "1 42965U 17062A   25353.86312618 -.00000329  00000+0  00000+0 0  9998",
        "tle_line2": "2 42965  40.2223 345.7806 0751488 271.6926 277.7655  1.00251063 30000"
      },
      "geometry": {
        "type": "Point",
        "coordinates": [
          -13.285442621480657,
          0.8096934004103749
        ]
      }
    },
    {
      "type": "Feature",
      "properties": {
        "norad_id": 43001,
        "name": "BEIDOU-3 M1 (C19)",
        "group": "gnss",
        "lat": -6.600915010939888,
        "lon": 64.61738722212226,
        "alt_km": 21512.00365069483,
        "timestamp": "2025-12-20T07:33:51.056359+00:00",
        "meta_object_name": "BEIDOU-3 M1 (C19)",
        "meta_object_id": "2017-069A",
        "meta_epoch": "2025-12-19T06:04:23.941632",
        "meta_mean_motion": 1.86231412,
        "meta_eccentricity": 0.0009566,
        "meta_inclination": 56.5322,
        "meta_ra_of_asc_node": 69.0186,
        "meta_arg_of_pericenter": 302.1864,
        "meta_mean_anomaly": 57.7554,
        "meta_ephemeris_type": 0,
        "meta_classification_type": "U",
        "meta_norad_cat_id": 43001,
        "meta_element_set_no": 999,
        "meta_rev_at_epoch": 5525,
        "meta_bstar": 0,
        "meta_mean_motion_dot": -5.5e-07,
        "meta_mean_motion_ddot": 0,
        "tle_line1": "1 43001U 17069A   25353.25305488 -.00000055  00000+0  00000+0 0  9993",
        "tle_line2": "2 43001  56.5322  69.0186 0009566 302.1864  57.7554  1.86231412 55251"
      },
      "geometry": {
        "type": "Point",
        "coordinates": [
          64.61738722212226,
          -6.600915010939888
        ]
      }
    },
    {
      "type": "Feature",
      "properties": {
        "norad_id": 43002,
        "name": "BEIDOU-3 M2 (C20)",
        "group": "gnss",
        "lat": 27.375032190174622,
        "lon": 89.03445996164832,
        "alt_km": 21516.526715389362,
        "timestamp": "2025-12-20T07:33:51.056370+00:00",
        "meta_object_name": "BEIDOU-3 M2 (C20)",
        "meta_object_id": "2017-069B",
        "meta_epoch": "2025-12-19T04:35:39.539904",
        "meta_mean_motion": 1.86231009,
        "meta_eccentricity": 0.0006519,
        "meta_inclination": 56.532,
        "meta_ra_of_asc_node": 69.0565,
        "meta_arg_of_pericenter": 330.2695,
        "meta_mean_anomaly": 29.7276,
        "meta_ephemeris_type": 0,
        "meta_classification_type": "U",
        "meta_norad_cat_id": 43002,
        "meta_element_set_no": 999,
        "meta_rev_at_epoch": 5524,
        "meta_bstar": 0,
        "meta_mean_motion_dot": -5.5e-07,
        "meta_mean_motion_ddot": 0,
        "tle_line1": "1 43002U 17069B   25353.19142986 -.00000055  00000+0  00000+0 0  9999",
        "tle_line2": "2 43002  56.5320  69.0565 0006519 330.2695  29.7276  1.86231009 55241"
      },
      "geometry": {
        "type": "Point",
        "coordinates": [
          89.03445996164832,
          27.375032190174622
        ]
      }
    },
    {
      "type": "Feature",
      "properties": {
        "norad_id": 43055,
        "name": "GSAT0215 (GALILEO 19)",
        "group": "gnss",
        "lat": 40.93966519903261,
        "lon": 9.246445284884029,
        "alt_km": 23220.054667569333,
        "timestamp": "2025-12-20T07:33:51.056388+00:00",
        "meta_object_name": "GSAT0215 (GALILEO 19)",
        "meta_object_id": "2017-079A",
        "meta_epoch": "2025-12-18T08:21:56.206080",
        "meta_mean_motion": 1.70474068,
        "meta_eccentricity": 0.00012335,
        "meta_inclination": 55.1282,
        "meta_ra_of_asc_node": 226.4832,
        "meta_arg_of_pericenter": 345.8587,
        "meta_mean_anomaly": 14.2435,
        "meta_ephemeris_type": 0,
        "meta_classification_type": "U",
        "meta_norad_cat_id": 43055,
        "meta_element_set_no": 999,
        "meta_rev_at_epoch": 4990,
        "meta_bstar": 0,
        "meta_mean_motion_dot": 6.2e-07,
        "meta_mean_motion_ddot": 0,
        "tle_line1": "1 43055U 17079A   25352.34856720  .00000062  00000+0  00000+0 0  9999",
        "tle_line2": "2 43055  55.1282 226.4832 0001233 345.8587  14.2435  1.70474068 49906"
      },
      "geometry": {
        "type": "Point",
        "coordinates": [
          9.246445284884029,
          40.93966519903261
        ]
      }
    },
    {
      "type": "Feature",
      "properties": {
        "norad_id": 43056,
        "name": "GSAT0216 (GALILEO 20)",
        "group": "gnss",
        "lat": -40.16455103627691,
        "lon": -169.58716490093283,
        "alt_km": 23220.015049748363,
        "timestamp": "2025-12-20T07:33:51.056399+00:00",
        "meta_object_name": "GSAT0216 (GALILEO 20)",
        "meta_object_id": "2017-079B",
        "meta_epoch": "2025-12-16T21:07:19.515072",
        "meta_mean_motion": 1.70474167,
        "meta_eccentricity": 0.00024195,
        "meta_inclination": 55.129,
        "meta_ra_of_asc_node": 226.5236,
        "meta_arg_of_pericenter": 322.2527,
        "meta_mean_anomaly": 37.829,
        "meta_ephemeris_type": 0,
        "meta_classification_type": "U",
        "meta_norad_cat_id": 43056,
        "meta_element_set_no": 999,
        "meta_rev_at_epoch": 4989,
        "meta_bstar": 0,
        "meta_mean_motion_dot": 5.3e-07,
        "meta_mean_motion_ddot": 0,
        "tle_line1": "1 43056U 17079B   25350.88008698  .00000053  00000+0  00000+0 0  9990",
        "tle_line2": "2 43056  55.1290 226.5236 0002419 322.2527  37.8290  1.70474167 49893"
      },
      "geometry": {
        "type": "Point",
        "coordinates": [
          -169.58716490093283,
          -40.16455103627691
        ]
      }
    }
  ]
}